{
  "type": "FeatureCollection",
  "features": [
    {
      "type": "Feature",
      "properties": {
        "norad_id": 30208,
        "name": "FENGYUN 1C DEB",
        "group": "fengyun-1c-debris",
        "lat": -7.508551036891363,
        "lon": 162.68255969201246,
        "alt_km": 819.2778939861173,
        "timestamp": "2025-12-08T17:43:05.205775+00:00",
        "meta_object_name": "FENGYUN 1C DEB",
        "meta_object_id": "1999-025VR",
        "meta_epoch": "2025-12-08T00:15:09.340992",
        "meta_mean_motion": 14.23509308,
        "meta_eccentricity": 0.00330272,
        "meta_inclination": 98.5618,
        "meta_ra_of_asc_node": 343.1122,
        "meta_arg_of_pericenter": 284.4355,
        "meta_mean_anomaly": 136.182,
        "meta_ephemeris_type": 0,
        "meta_classification_type": "U",
        "meta_norad_cat_id": 30208,
        "meta_element_set_no": 999,
        "meta_rev_at_epoch": 97770,
        "meta_bstar": 0.00077489555,
        "meta_mean_motion_dot": 1.729e-05,
        "meta_mean_motion_ddot": 0,
        "tle_line1": "1 30208U 99025VR  25342.01052478  .00001729  00000+0  77490-3 0  9999",
        "tle_line2": "2 30208  98.5618 343.1122 0033027 284.4355 136.1820 14.23509308977700"
      },
      "geometry": {
        "type": "Point",
        "coordinates": [
          162.68255969201246,
          -7.508551036891363
        ]
      }
    },
    {
      "type": "Feature",
      "properties": {
        "norad_id": 30209,
        "name": "FENGYUN 1C DEB",
        "group": "fengyun-1c-debris",
        "lat": -35.99195380196032,
        "lon": -13.92960925542896,
        "alt_km": 847.5404099554544,
        "timestamp": "2025-12-08T17:43:05.205785+00:00",
        "meta_object_name": "FENGYUN 1C DEB",
        "meta_object_id": "1999-025VS",
        "meta_epoch": "2025-12-08T06:05:44.045664",
        "meta_mean_motion": 14.12892972,
        "meta_eccentricity": 0.0038597,
        "meta_inclination": 98.7137,
        "meta_ra_of_asc_node": 339.2036,
        "meta_arg_of_pericenter": 251.8674,
        "meta_mean_anomaly": 129.4953,
        "meta_ephemeris_type": 0,
        "meta_classification_type": "U",
        "meta_norad_cat_id": 30209,
        "meta_element_set_no": 999,
        "meta_rev_at_epoch": 97143,
        "meta_bstar": 0.00078473238,
        "meta_mean_motion_dot": 1.428e-05,
        "meta_mean_motion_ddot": 0,
        "tle_line1": "1 30209U 99025VS  25342.25398201  .00001428  00000+0  78473-3 0  9991",
        "tle_line2": "2 30209  98.7137 339.2036 0038597 251.8674 129.4953 14.12892972971434"
      },
      "geometry": {
        "type": "Point",
        "coordinates": [
          -13.92960925542896,
          -35.99195380196032
        ]
      }
    },
    {
      "type": "Feature",
      "properties": {
        "norad_id": 30210,
        "name": "FENGYUN 1C DEB",
        "group": "fengyun-1c-debris",
        "lat": 35.40035431037878,
        "lon": 25.805200216535447,
        "alt_km": 877.6545568449819,
        "timestamp": "2025-12-08T17:43:05.205796+00:00",
        "meta_object_name": "FENGYUN 1C DEB",
        "meta_object_id": "1999-025VT",
        "meta_epoch": "2025-12-08T02:27:35.618976",
        "meta_mean_motion": 14.0825206,
        "meta_eccentricity": 0.00569105,
        "meta_inclination": 99.1907,
        "meta_ra_of_asc_node": 31.7649,
        "meta_arg_of_pericenter": 149.0879,
        "meta_mean_anomaly": 266.197,
        "meta_ephemeris_type": 0,
        "meta_classification_type": "U",
        "meta_norad_cat_id": 30210,
        "meta_element_set_no": 999,
        "meta_rev_at_epoch": 96692,
        "meta_bstar": 0.00090369086,
        "meta_mean_motion_dot": 1.521e-05,
        "meta_mean_motion_ddot": 0,
        "tle_line1": "1 30210U 99025VT  25342.10249559  .00001521  00000+0  90369-3 0  9990",
        "tle_line2": "2 30210  99.1907  31.7649 0056910 149.0879 266.1970 14.08252060966923"
      },
      "geometry": {
        "type": "Point",
        "coordinates": [
          25.805200216535447,
          35.40035431037878
        ]
      }
    },
    {
      "type": "Feature",
      "properties": {
        "norad_id": 30212,
        "name": "FENGYUN 1C DEB",
        "group": "fengyun-1c-debris",
        "lat": 80.03879432069544,
        "lon": 136.3583379926998,
        "alt_km": 963.3450713349757,
        "timestamp": "2025-12-08T17:43:05.205807+00:00",
        "meta_object_name": "FENGYUN 1C DEB",
        "meta_object_id": "1999-025VV",
        "meta_epoch": "2025-12-08T01:49:39.608832",
        "meta_mean_motion": 13.97049975,
        "meta_eccentricity": 0.00968192,
        "meta_inclination": 99.4581,
        "meta_ra_of_asc_node": 207.3238,
        "meta_arg_of_pericenter": 250.0644,
        "meta_mean_anomaly": 109.0068,
        "meta_ephemeris_type": 0,
        "meta_classification_type": "U",
        "meta_norad_cat_id": 30212,
        "meta_element_set_no": 999,
        "meta_rev_at_epoch": 96160,
        "meta_bstar": 0.00054625444,
        "meta_mean_motion_dot": 7.45e-06,
        "meta_mean_motion_ddot": 0,
        "tle_line1": "1 30212U 99025VV  25342.07615288  .00000745  00000+0  54625-3 0  9996",
        "tle_line2": "2 30212  99.4581 207.3238 0096819 250.0644 109.0068 13.97049975961605"
      },
      "geometry": {
        "type": "Point",
        "coordinates": [
          136.3583379926998,
          80.03879432069544
        ]
      }
    },
    {
      "type": "Feature",
      "properties": {
        "norad_id": 30213,
        "name": "FENGYUN 1C DEB",
        "group": "fengyun-1c-debris",
        "lat": -49.28539343696433,
        "lon": 69.87331714627688,
        "alt_km": 831.1584901318029,
        "timestamp": "2025-12-08T17:43:05.205818+00:00",
        "meta_object_name": "FENGYUN 1C DEB",
        "meta_object_id": "1999-025VW",
        "meta_epoch": "2025-12-08T04:38:29.234688",
        "meta_mean_motion": 14.11536018,
        "meta_eccentricity": 0.00712559,
        "meta_inclination": 99.1223,
        "meta_ra_of_asc_node": 58.5591,
        "meta_arg_of_pericenter": 256.3998,
        "meta_mean_anomaly": 165.6654,
        "meta_ephemeris_type": 0,
        "meta_classification_type": "U",
        "meta_norad_cat_id": 30213,
        "meta_element_set_no": 999,
        "meta_rev_at_epoch": 96451,
        "meta_bstar": 0.002044676,
        "meta_mean_motion_dot": 3.755e-05,
        "meta_mean_motion_ddot": 0,
        "tle_line1": "1 30213U 99025VW  25342.19339392  .00003755  00000+0  20447-2 0  9997",
        "tle_line2": "2 30213  99.1223  58.5591 0071255 256.3998 165.6654 14.11536018964510"
      },
      "geometry": {
        "type": "Point",
        "coordinates": [
          69.87331714627688,
          -49.28539343696433
        ]
      }
    },
    {
      "type": "Feature",
      "properties": {
        "norad_id": 30214,
        "name": "FENGYUN 1C DEB",
        "group": "fengyun-1c-debris",
        "lat": -26.47650097645497,
        "lon": -128.51197479881924,
        "alt_km": 807.5509611365878,
        "timestamp": "2025-12-08T17:43:05.205828+00:00",
        "meta_object_name": "FENGYUN 1C DEB",
        "meta_object_id": "1999-025VX",
        "meta_epoch": "2025-12-07T16:17:42.065376",
        "meta_mean_motion": 14.30859446,
        "meta_eccentricity": 0.00212176,
        "meta_inclination": 98.7246,
        "meta_ra_of_asc_node": 54.8116,
        "meta_arg_of_pericenter": 60.3593,
        "meta_mean_anomaly": 92.7615,
        "meta_ephemeris_type": 0,
        "meta_classification_type": "U",
        "meta_norad_cat_id": 30214,
        "meta_element_set_no": 999,
        "meta_rev_at_epoch": 97494,
        "meta_bstar": 0.0028272448,
        "meta_mean_motion_dot": 7.398e-05,
        "meta_mean_motion_ddot": 0,
        "tle_line1": "1 30214U 99025VX  25341.67895909  .00007398  00000+0  28272-2 0  9992",
        "tle_line2": "2 30214  98.7246  54.8116 0021217  60.3593  92.7615 14.30859446974949"
      },
      "geometry": {
        "type": "Point",
        "coordinates": [
          -128.51197479881924,
          -26.47650097645497
        ]
      }
    },
    {
      "type": "Feature",
      "properties": {
        "norad_id": 30217,
        "name": "FENGYUN 1C DEB",
        "group": "fengyun-1c-debris",
        "lat": 79.84261368450544,
        "lon": -89.20950719769743,
        "alt_km": 711.4165571952035,
        "timestamp": "2025-12-08T17:43:05.205839+00:00",
        "meta_object_name": "FENGYUN 1C DEB",
        "meta_object_id": "1999-025WA",
        "meta_epoch": "2025-12-07T22:47:17.576736",
        "meta_mean_motion": 14.24824674,
        "meta_eccentricity": 0.01406062,
        "meta_inclination": 98.4309,
        "meta_ra_of_asc_node": 325.9084,
        "meta_arg_of_pericenter": 113.7515,
        "meta_mean_anomaly": 247.8485,
        "meta_ephemeris_type": 0,
        "meta_classification_type": "U",
        "meta_norad_cat_id": 30217,
        "meta_element_set_no": 999,
        "meta_rev_at_epoch": 98005,
        "meta_bstar": 0.00034293599,
        "meta_mean_motion_dot": 8.46e-06,
        "meta_mean_motion_ddot": 0,
        "tle_line1": "1 30217U 99025WA  25341.94950899  .00000846  00000+0  34294-3 0  9998",
        "tle_line2": "2 30217  98.4309 325.9084 0140606 113.7515 247.8485 14.24824674980051"
      },
      "geometry": {
        "type": "Point",
        "coordinates": [
          -89.20950719769743,
          79.84261368450544
        ]
      }
    }
  ]
}